[{"OBJECT_NAME":"STARLINK-31268","OBJECT_ID":"2024-049Q","EPOCH":"2025-08-23T06:21:19.060416","MEAN_MOTION":15.27577369,"ECCENTRICITY":0.00012046,"INCLINATION":43.0009,"RA_OF_ASC_NODE":180.2376,"ARG_OF_PERICENTER":260.2236,"MEAN_ANOMALY":99.8479,"EPHEMERIS_TYPE":0,"CLASSIFICATION_TYPE":"U","NORAD_CAT_ID":59245,"ELEMENT_SET_NO":999,"REV_AT_EPOCH":8209,"BSTAR":6.397059e-6,"MEAN_MOTION_DOT":-8.6e-7,"MEAN_MOTION_DDOT":0},{"OBJECT_NAME":"STARLINK-31284","OBJECT_ID":"2024-049R","EPOCH":"2025-08-23T13:01:19.344000","MEAN_MOTION":15.27573461,"ECCENTRICITY":0.0001014,"INCLINATION":42.9995,"RA_OF_ASC_NODE":182.4247,"ARG_OF_PERICENTER":268.433,"MEAN_ANOMALY":91.6406,"EPHEMERIS_TYPE":0,"CLASSIFICATION_TYPE":"U","NORAD_CAT_ID":59246,"ELEMENT_SET_NO":999,"REV_AT_EPOCH":8209,"BSTAR":2.6356667e-5,"MEAN_MOTION_DOT":4.63e-6,"MEAN_MOTION_DDOT":0},{"OBJECT_NAME":"STARLINK-31424","OBJECT_ID":"2024-049S","EPOCH":"2025-08-23T21:05:44.125152","MEAN_MOTION":15.27585387,"ECCENTRICITY":0.00017173,"INCLINATION":43.0017,"RA_OF_ASC_NODE":177.1912,"ARG_OF_PERICENTER":266.0638,"MEAN_ANOMALY":94.0018,"EPHEMERIS_TYPE":0,"CLASSIFICATION_TYPE":"U","NORAD_CAT_ID":59247,"ELEMENT_SET_NO":999,"REV_AT_EPOCH":8218,"BSTAR":7.6967317e-5,"MEAN_MOTION_DOT":1.857e-5,"MEAN_MOTION_DDOT":0},{"OBJECT_NAME":"STARLINK-31405","OBJECT_ID":"2024-049T","EPOCH":"2025-08-23T13:32:45.075840","MEAN_MOTION":15.27595238,"ECCENTRICITY":0.00012937,"INCLINATION":43.0019,"RA_OF_ASC_NODE":182.5938,"ARG_OF_PERICENTER":271.75,"MEAN_ANOMALY":88.3203,"EPHEMERIS_TYPE":0,"CLASSIFICATION_TYPE":"U","NORAD_CAT_ID":59248,"ELEMENT_SET_NO":999,"REV_AT_EPOCH":8209,"BSTAR":0.00010399489,"MEAN_MOTION_DOT":2.602e-5,"MEAN_MOTION_DDOT":0},{"OBJECT_NAME":"STARLINK-31426","OBJECT_ID":"2024-049U","EPOCH":"2025-08-23T13:38:19.370400","MEAN_MOTION":15.27579281,"ECCENTRICITY":7.611e-5,"INCLINATION":43.0019,"RA_OF_ASC_NODE":182.6171,"ARG_OF_PERICENTER":285.46,"MEAN_ANOMALY":74.6167,"EPHEMERIS_TYPE":0,"CLASSIFICATION_TYPE":"U","NORAD_CAT_ID":59249,"ELEMENT_SET_NO":999,"REV_AT_EPOCH":8209,"BSTAR":5.5477123e-5,"MEAN_MOTION_DOT":1.265e-5,"MEAN_MOTION_DDOT":0},{"OBJECT_NAME":"STARLINK-31407","OBJECT_ID":"2024-049V","EPOCH":"2025-08-23T05:27:13.111776","MEAN_MOTION":15.27545898,"ECCENTRICITY":9.523e-5,"INCLINATION":43.0034,"RA_OF_ASC_NODE":173.1125,"ARG_OF_PERICENTER":283.6128,"MEAN_ANOMALY":76.4618,"EPHEMERIS_TYPE":0,"CLASSIFICATION_TYPE":"U","NORAD_CAT_ID":59250,"ELEMENT_SET_NO":999,"REV_AT_EPOCH":8217,"BSTAR":0.00041074053,"MEAN_MOTION_DOT":0.00011046,"MEAN_MOTION_DDOT":0},{"OBJECT_NAME":"STARLINK-31393","OBJECT_ID":"2024-049X","EPOCH":"2025-08-23T11:59:20.414112","MEAN_MOTION":15.27579992,"ECCENTRICITY":9.596e-5,"INCLINATION":43.0025,"RA_OF_ASC_NODE":168.2405,"ARG_OF_PERICENTER":277.6289,"MEAN_ANOMALY":82.4454,"EPHEMERIS_TYPE":0,"CLASSIFICATION_TYPE":"U","NORAD_CAT_ID":59252,"ELEMENT_SET_NO":999,"REV_AT_EPOCH":8226,"BSTAR":7.575669e-6,"MEAN_MOTION_DOT":-5.4e-7,"MEAN_MOTION_DDOT":0},{"OBJECT_NAME":"STARLINK-31425","OBJECT_ID":"2024-049Y","EPOCH":"2025-08-23T20:46:33.044736","MEAN_MOTION":15.27573003,"ECCENTRICITY":0.00012033,"INCLINATION":43.0013,"RA_OF_ASC_NODE":180.5498,"ARG_OF_PERICENTER":273.0929,"MEAN_ANOMALY":86.9785,"EPHEMERIS_TYPE":0,"CLASSIFICATION_TYPE":"U","NORAD_CAT_ID":59253,"ELEMENT_SET_NO":999,"REV_AT_EPOCH":8214,"BSTAR":4.8637088e-5,"MEAN_MOTION_DOT":1.076e-5,"MEAN_MOTION_DDOT":0},{"OBJECT_NAME":"STARLINK-31659","OBJECT_ID":"2024-050A","EPOCH":"2025-08-23T16:25:02.936928","MEAN_MOTION":15.30194915,"ECCENTRICITY":0.00010459,"INCLINATION":53.16,"RA_OF_ASC_NODE":18.539,"ARG_OF_PERICENTER":81.9749,"MEAN_ANOMALY":278.1371,"EPHEMERIS_TYPE":0,"CLASSIFICATION_TYPE":"U","NORAD_CAT_ID":59254,"ELEMENT_SET_NO":999,"REV_AT_EPOCH":8141,"BSTAR":3.8219463e-5,"MEAN_MOTION_DOT":7.73e-6,"MEAN_MOTION_DDOT":0},{"OBJECT_NAME":"STARLINK-31629","OBJECT_ID":"2024-050B","EPOCH":"2025-08-23T16:36:26.794656","MEAN_MOTION":15.30204957,"ECCENTRICITY":0.00011079,"INCLINATION":53.1621,"RA_OF_ASC_NODE":20.7155,"ARG_OF_PERICENTER":80.9717,"MEAN_ANOMALY":279.141,"EPHEMERIS_TYPE":0,"CLASSIFICATION_TYPE":"U","NORAD_CAT_ID":59255,"ELEMENT_SET_NO":999,"REV_AT_EPOCH":8023,"BSTAR":-3.3742481e-5,"MEAN_MOTION_DOT":-1.358e-5,"MEAN_MOTION_DDOT":0},{"OBJECT_NAME":"STARLINK-31652","OBJECT_ID":"2024-050C","EPOCH":"2025-08-23T16:18:12.670848","MEAN_MOTION":15.30193363,"ECCENTRICITY":0.00010525,"INCLINATION":53.162,"RA_OF_ASC_NODE":20.638,"ARG_OF_PERICENTER":82.0939,"MEAN_ANOMALY":278.0181,"EPHEMERIS_TYPE":0,"CLASSIFICATION_TYPE":"U","NORAD_CAT_ID":59256,"ELEMENT_SET_NO":999,"REV_AT_EPOCH":8023,"BSTAR":7.740216e-6,"MEAN_MOTION_DOT":-1.3e-6,"MEAN_MOTION_DDOT":0},{"OBJECT_NAME":"STARLINK-31655","OBJECT_ID":"2024-050D","EPOCH":"2025-08-23T16:18:54.061632","MEAN_MOTION":15.30208881,"ECCENTRICITY":9.944e-5,"INCLINATION":53.1608,"RA_OF_ASC_NODE":342.5248,"ARG_OF_PERICENTER":86.217,"MEAN_ANOMALY":273.8945,"EPHEMERIS_TYPE":0,"CLASSIFICATION_TYPE":"U","NORAD_CAT_ID":59257,"ELEMENT_SET_NO":999,"REV_AT_EPOCH":8076,"BSTAR":0.00012586432,"MEAN_MOTION_DOT":3.371e-5,"MEAN_MOTION_DDOT":0},{"OBJECT_NAME":"STARLINK-31637","OBJECT_ID":"2024-050E","EPOCH":"2025-08-23T16:09:05.756256","MEAN_MOTION":15.30191122,"ECCENTRICITY":0.00013458,"INCLINATION":53.1623,"RA_OF_ASC_NODE":20.6011,"ARG_OF_PERICENTER":89.2314,"MEAN_ANOMALY":270.8841,"EPHEMERIS_TYPE":0,"CLASSIFICATION_TYPE":"U","NORAD_CAT_ID":59258,"ELEMENT_SET_NO":999,"REV_AT_EPOCH":8023,"BSTAR":5.29045e-6,"MEAN_MOTION_DOT":-2.03e-6,"MEAN_MOTION_DDOT":0},{"OBJECT_NAME":"STARLINK-31506","OBJECT_ID":"2024-050F","EPOCH":"2025-08-23T16:31:53.054400","MEAN_MOTION":15.30198495,"ECCENTRICITY":0.00011109,"INCLINATION":53.1616,"RA_OF_ASC_NODE":20.6974,"ARG_OF_PERICENTER":79.7888,"MEAN_ANOMALY":280.3238,"EPHEMERIS_TYPE":0,"CLASSIFICATION_TYPE":"U","NORAD_CAT_ID":59259,"ELEMENT_SET_NO":999,"REV_AT_EPOCH":8023,"BSTAR":5.9117653e-5,"MEAN_MOTION_DOT":1.392e-5,"MEAN_MOTION_DDOT":0},{"OBJECT_NAME":"STARLINK-31288","OBJECT_ID":"2024-050G","EPOCH":"2025-08-23T22:00:03.000096","MEAN_MOTION":15.58016063,"ECCENTRICITY":0.00050832,"INCLINATION":53.1435,"RA_OF_ASC_NODE":6.2612,"ARG_OF_PERICENTER":342.8217,"MEAN_ANOMALY":49.5482,"EPHEMERIS_TYPE":0,"CLASSIFICATION_TYPE":"U","NORAD_CAT_ID":59260,"ELEMENT_SET_NO":999,"REV_AT_EPOCH":595,"BSTAR":0.0022410716,"MEAN_MOTION_DOT":0.00174434,"MEAN_MOTION_DDOT":0},{"OBJECT_NAME":"STARLINK-31639","OBJECT_ID":"2024-050H","EPOCH":"2025-08-23T16:13:39.226944","MEAN_MOTION":15.30192833,"ECCENTRICITY":0.00013129,"INCLINATION":53.1605,"RA_OF_ASC_NODE":20.6175,"ARG_OF_PERICENTER":91.6172,"MEAN_ANOMALY":268.498,"EPHEMERIS_TYPE":0,"CLASSIFICATION_TYPE":"U","NORAD_CAT_ID":59261,"ELEMENT_SET_NO":999,"REV_AT_EPOCH":8023,"BSTAR":7.980048e-5,"MEAN_MOTION_DOT":2.004e-5,"MEAN_MOTION_DDOT":0}]
