STARLINK-31268          
1 59245U 24049Q   25235.26480394 -.00000086  00000+0  63971-5 0  9992
2 59245  43.0009 180.2376 0001204 260.2236  99.8479 15.27577369 82095
STARLINK-31284          
1 59246U 24049R   25235.54258500  .00000463  00000+0  26357-4 0  9990
2 59246  42.9995 182.4247 0001014 268.4330  91.6406 15.27573461 82092
STARLINK-31424          
1 59247U 24049S   25235.87898293  .00001857  00000+0  76967-4 0  9996
2 59247  43.0017 177.1912 0001717 266.0638  94.0018 15.27585387 82181
STARLINK-31405          
1 59248U 24049T   25235.56441060  .00002602  00000+0  10399-3 0  9994
2 59248  43.0019 182.5938 0001293 271.7500  88.3203 15.27595238 82090
STARLINK-31426          
1 59249U 24049U   25235.56827975  .00001265  00000+0  55477-4 0  9999
2 59249  43.0019 182.6171 0000761 285.4600  74.6167 15.27579281 82090
STARLINK-31407          
1 59250U 24049V   25235.22723509  .00011046  00000+0  41074-3 0  9997
2 59250  43.0034 173.1125 0000952 283.6128  76.4618 15.27545898 82177
STARLINK-31393          
1 59252U 24049X   25235.49954183 -.00000054  00000+0  75757-5 0  9997
2 59252  43.0025 168.2405 0000959 277.6289  82.4454 15.27579992 82260
STARLINK-31425          
1 59253U 24049Y   25235.86566024  .00001076  00000+0  48637-4 0  9992
2 59253  43.0013 180.5498 0001203 273.0929  86.9785 15.27573003 82141
STARLINK-31659          
1 59254U 24050A   25235.68406177  .00000773  00000+0  38219-4 0  9995
2 59254  53.1600  18.5390 0001045  81.9749 278.1371 15.30194915 81417
STARLINK-31629          
1 59255U 24050B   25235.69197679 -.00001358  00000+0 -33742-4 0  9999
2 59255  53.1621  20.7155 0001107  80.9717 279.1410 15.30204957 80230
STARLINK-31652          
1 59256U 24050C   25235.67931332 -.00000130  00000+0  77402-5 0  9998
2 59256  53.1620  20.6380 0001052  82.0939 278.0181 15.30193363 80238
STARLINK-31655          
1 59257U 24050D   25235.67979238  .00003371  00000+0  12586-3 0  9995
2 59257  53.1608 342.5248 0000994  86.2170 273.8945 15.30208881 80762
STARLINK-31637          
1 59258U 24050E   25235.67298329 -.00000203  00000+0  52905-5 0  9994
2 59258  53.1623  20.6011 0001345  89.2314 270.8841 15.30191122 80239
STARLINK-31506          
1 59259U 24050F   25235.68880850  .00001392  00000+0  59118-4 0  9993
2 59259  53.1616  20.6974 0001110  79.7888 280.3238 15.30198495 80236
STARLINK-31288          
1 59260U 24050G   25235.91670139  .00174434  00000+0  22411-2 0  9990
2 59260  53.1435   6.2612 0005083 342.8217  49.5482 15.58016063  5951
STARLINK-31639          
1 59261U 24050H   25235.67614846  .00002004  00000+0  79800-4 0  9996
2 59261  53.1605  20.6175 0001312  91.6172 268.4980 15.30192833 80234
